NORAD_CAT_ID,OBJECT_NAME,OBJECT_TYPE,EPOCH,MEAN_MOTION,ECCENTRICITY,INCLINATION,RA_OF_ASC_NODE,ARG_OF_PERICENTER,MEAN_ANOMALY,BSTAR,MEAN_MOTION_DOT,MEAN_MOTION_DDOT,TLE_LINE0,TLE_LINE1,TLE_LINE2,SEMIMAJOR_AXIS,PERIOD,APOGEE,PERIGEE,DECAYED
50181.0,STARLINK-3285,PAYLOAD,2022-07-23 20:50:11,15.0883034,0.0002218,53.2185,76.4755,61.9233,298.1983,0.00021332,3.108e-05,0.0,0 STARLINK-3285,1 50181U 21125AB  22204.86818544  .00003108  00000-0  21332-3 0  9996,2 50181  53.2185  76.4755 0002218  61.9233 298.1983 15.08830340 36609,6917.91,95.438,541.309,538.241,0.0
50181.0,STARLINK-3285,PAYLOAD,2022-07-24 07:57:53,15.08849371,0.0002198,53.2188,74.3943,56.0722,304.0479,0.00099013,0.00015509,0.0,0 STARLINK-3285,1 50181U 21125AB  22205.33186359  .00015509  00000-0  99013-3 0  9990,2 50181  53.2188  74.3943 0002198  56.0722 304.0479 15.08849371 36671,6917.852,95.437,541.237,538.196,0.0
50181.0,STARLINK-3285,PAYLOAD,2022-07-24 22:16:20,15.08858729,0.0002156,53.2186,71.7184,56.9034,303.2165,0.00059079,9.132e-05,0.0,0 STARLINK-3285,1 50181U 21125AB  22205.92801776  .00009132  00000-0  59079-3 0  9995,2 50181  53.2186  71.7184 0002156  56.9034 303.2165 15.08858729 36766,6917.823,95.436,541.18,538.197,0.0
50181.0,STARLINK-3285,PAYLOAD,2022-07-25 01:27:07,15.0885089,0.0002094,53.218,71.1242,54.364,305.7547,0.00036281,5.492e-05,0.0,0 STARLINK-3285,1 50181U 21125AB  22206.06049862  .00005492  00000-0  36281-3 0  9996,2 50181  53.2180  71.1242 0002094  54.3640 305.7547 15.08850890 36295,6917.847,95.437,541.161,538.264,0.0
50181.0,STARLINK-3285,PAYLOAD,2022-07-25 07:48:39,15.08847995,0.0002041999999999,53.2185,69.9341,56.1253,303.9933,0.00014851,2.077e-05,0.0,0 STARLINK-3285,1 50181U 21125AB  22206.32545780  .00002077  00000-0  14851-3 0  9990,2 50181  53.2185  69.9341 0002042  56.1253 303.9933 15.08847995 36828,6917.856,95.437,541.134,538.308,0.0
50181.0,STARLINK-3285,PAYLOAD,2022-07-25 20:31:44,15.08852229,0.0002084,53.2184,67.5556,57.1646,302.9546,0.00031339,4.705e-05,0.0,0 STARLINK-3285,1 50181U 21125AB  22206.85537613  .00004705  00000-0  31339-3 0  9994,2 50181  53.2184  67.5556 0002084  57.1646 302.9546 15.08852229 36412,6917.843000000003,95.437,541.15,538.266,0.0
50181.0,STARLINK-3285,PAYLOAD,2022-07-26 07:39:26,15.08857307,0.000206,53.2179,65.4747,57.1505,302.9686,0.00046589,7.138e-05,0.0,0 STARLINK-3285,1 50181U 21125AB  22207.31905253  .00007138  00000-0  46589-3 0  9991,2 50181  53.2179  65.4747 0002060  57.1505 302.9686 15.08857307 36971,6917.8269999999975,95.436,541.118,538.2669999999998,0.0
50181.0,STARLINK-3285,PAYLOAD,2022-07-26 20:22:30,15.08859264,0.0002066999999999,53.218,63.0955,58.627,301.4924,0.00042923,6.553e-05,0.0,0 STARLINK-3285,1 50181U 21125AB  22207.84896748  .00006553  00000-0  42923-3 0  9995,2 50181  53.2180  63.0955 0002067  58.6270 301.4924 15.08859264 37053,6917.821999999999,95.436,541.116,538.257,0.0
50181.0,STARLINK-3285,PAYLOAD,2022-07-26 23:33:17,15.08855508,0.00021,53.2181,62.5009,58.9405,301.1793,0.00027176,4.041e-05,0.0,0 STARLINK-3285,1 50181U 21125AB  22207.98144722  .00004041  00000-0  27176-3 0  9991,2 50181  53.2181  62.5009 0002100  58.9405 301.1793 15.08855508 37079,6917.833000000001,95.437,541.151,538.245,0.0
50181.0,STARLINK-3285,PAYLOAD,2022-07-27 20:13:17,15.08844099,0.0002114,53.2178,58.6361,61.1507,298.9697,-1.791e-05,-5.73e-06,0.0,0 STARLINK-3285,1 50181U 21125AB  22208.84256709 -.00000573  00000-0 -17910-4 0  9990,2 50181  53.2178  58.6361 0002114  61.1507 298.9697 15.08844099 36715,6917.868,95.437,541.195,538.27,0.0
50181.0,STARLINK-3285,PAYLOAD,2022-07-28 07:20:59,15.08845469,0.0002095,53.219,56.5513,62.892,297.2286,2.7225e-05,1.45e-06,0.0,0 STARLINK-3285,1 50181U 21125AB  22209.30624707  .00000145  00000-0  27225-4 0  9992,2 50181  53.2190  56.5513 0002095  62.8920 297.2286 15.08845469 37270,6917.864000000001,95.437,541.178,538.279,0.0
50181.0,STARLINK-3285,PAYLOAD,2022-07-28 18:28:41,15.08840908,0.0002161,53.2191,54.4705,64.6704,295.4512,-4.5807e-05,-1.017e-05,0.0,0 STARLINK-3285,1 50181U 21125AB  22209.76992926 -.00001017  00000-0 -45807-4 0  9990,2 50181  53.2191  54.4705 0002161  64.6704 295.4512 15.08840908 37348,6917.878000000002,95.437,541.238,538.248,0.0
50181.0,STARLINK-3285,PAYLOAD,2022-07-28 20:04:05,15.08838805,0.000216,53.2188,54.174,61.2105,298.9104,-7.6077e-05,-1.499e-05,0.0,0 STARLINK-3285,1 50181U 21125AB  22209.83617048 -.00001499  00000-0 -76077-4 0  9994,2 50181  53.2188  54.1740 0002160  61.2105 298.9104 15.08838805 36861,6917.884,95.438,541.243,538.255,0.0
50181.0,STARLINK-3285,PAYLOAD,2022-07-29 07:11:46,15.08843738,0.0002056999999999,53.2194,52.0924,63.3806,296.7397,-1.9758e-06,-3.2e-06,0.0,0 STARLINK-3285,1 50181U 21125AB  22210.29984911 -.00000320  00000-0 -19758-5 0  9998,2 50181  53.2194  52.0924 0002057  63.3806 296.7397 15.08843738 37429,6917.869000000002,95.437,541.1569999999998,538.311,0.0
50181.0,STARLINK-3285,PAYLOAD,2022-07-29 19:54:51,15.08843489,0.0002034,53.2193,49.7133,61.5916,298.5281,4.9693e-05,5.03e-06,0.0,0 STARLINK-3285,1 50181U 21125AB  22210.82976792  .00000503  00000-0  49693-4 0  9996,2 50181  53.2193  49.7133 0002034  61.5916 298.5281 15.08843489 37504,6917.87,95.437,541.1419999999998,538.328,0.0
50181.0,STARLINK-3285,PAYLOAD,2022-07-29 23:05:38,15.08843796,0.0002041999999999,53.2193,49.1187,61.2606,298.8591,4.6083e-05,4.45e-06,0.0,0 STARLINK-3285,1 50181U 21125AB  22210.96224741  .00000445  00000-0  46083-4 0  9996,2 50181  53.2193  49.1187 0002042  61.2606 298.8591 15.08843796 37035,6917.869000000002,95.437,541.146,538.321,0.0
50181.0,STARLINK-3285,PAYLOAD,2022-07-30 08:37:56,15.08844823,0.0001929,53.2192,47.3347,62.2651,297.8537,9.6544e-05,1.249e-05,0.0,0 STARLINK-3285,1 50181U 21125AB  22211.35968421  .00001249  00000-0  96544-4 0  9990,2 50181  53.2192  47.3347 0001929  62.2651 297.8537 15.08844823 37587,6917.866,95.437,541.065,538.396,0.0
50181.0,STARLINK-3285,PAYLOAD,2022-07-30 19:45:39,15.08832237,0.0001968,53.2191,45.2531,61.5042,298.6148,5.7015e-05,6.19e-06,0.0,0 STARLINK-3285,1 50181U 21125AB  22211.82337490  .00000619  00000-0  57015-4 0  9998,2 50181  53.2191  45.2531 0001968  61.5042 298.6148 15.08832237 37164,6917.904,95.438,541.131,538.408,0.0
50181.0,STARLINK-3285,PAYLOAD,2022-07-31 13:14:54,15.088350199999995,0.0001945,53.219,41.9824,60.8533,299.2654,3.1018e-05,2.05e-06,0.0,0 STARLINK-3285,1 50181U 21125AB  22212.55201630  .00000205  00000-0  31018-4 0  9991,2 50181  53.2190  41.9824 0001945  60.8533 299.2654 15.08835020 37761,6917.896,95.438,541.106,538.415,0.0
50181.0,STARLINK-3285,PAYLOAD,2022-07-31 19:36:26,15.0883706,0.0001947,53.219,40.793,60.7459,299.3728,4.1226e-05,3.68e-06,0.0,0 STARLINK-3285,1 50181U 21125AB  22212.81697531  .00000368  00000-0  41226-4 0  9991,2 50181  53.2190  40.7930 0001947  60.7459 299.3728 15.08837060 37808,6917.889,95.438,541.101,538.4069999999998,0.0
50181.0,STARLINK-3285,PAYLOAD,2022-08-01 05:08:45,15.08840534,0.0001946,53.2191,39.0089,60.3361,299.7825,2.9826e-05,1.87e-06,0.0,0 STARLINK-3285,1 50181U 21125AB  22213.21441381  .00000187  00000-0  29826-4 0  9997,2 50181  53.2191  39.0089 0001946  60.3361 299.7825 15.08840534 37376,6917.879,95.438,541.09,538.398,0.0
50181.0,STARLINK-3285,PAYLOAD,2022-08-01 14:41:04,15.08838141,0.0001947,53.2193,37.2247,60.1812,299.9374,0.00011849,1.598e-05,0.0,0 STARLINK-3285,1 50181U 21125AB  22213.61185316  .00001598  00000-0  11849-3 0  9996,2 50181  53.2193  37.2247 0001947  60.1812 299.9374 15.08838141 37927,6917.886,95.438,541.0980000000002,538.404,0.0
50181.0,STARLINK-3285,PAYLOAD,2022-08-02 11:21:05,15.08835522,0.0002188,53.2192,33.3592,43.4666,316.6498,6.2664e-05,7.09e-06,0.0,0 STARLINK-3285,1 50181U 21125AB  22214.47297828  .00000709  00000-0  62664-4 0  9998,2 50181  53.2192  33.3592 0002188  43.4666 316.6498 15.08835522 38054,6917.894,95.438,541.273,538.245,0.0
50181.0,STARLINK-3285,PAYLOAD,2022-08-02 20:53:24,15.08836905,0.0001966,53.2194,31.5752,58.8419,301.2765,5.423899999999999e-05,5.75e-06,0.0,0 STARLINK-3285,1 50181U 21125AB  22214.87041836  .00000575  00000-0  54239-4 0  9998,2 50181  53.2194  31.5752 0001966  58.8419 301.2765 15.08836905 38113,6917.89,95.438,541.115,538.395,0.0
50181.0,STARLINK-3285,PAYLOAD,2022-08-03 11:11:51,15.08840811,0.0001932,53.2184,28.8988,63.6196,296.4994,2.7414e-05,1.48e-06,0.0,0 STARLINK-3285,1 50181U 21125AB  22215.46657352  .00000148  00000-0  27414-4 0  9991,2 50181  53.2184  28.8988 0001932  63.6196 296.4994 15.08840811 37716,6917.878000000002,95.438,541.0790000000002,538.406,0.0
50181.0,STARLINK-3285,PAYLOAD,2022-08-03 14:22:38,15.08842186,0.000193,53.2184,28.3041,63.9338,296.1852,5.4661e-05,5.82e-06,0.0,0 STARLINK-3285,1 50181U 21125AB  22215.59905312  .00000582  00000-0  54661-4 0  9993,2 50181  53.2184  28.3041 0001930  63.9338 296.1852 15.08842186 38224,6917.874,95.437,541.0740000000002,538.404,0.0
50181.0,STARLINK-3285,PAYLOAD,2022-08-04 12:38:01,15.08847888,0.0001933,53.2182,24.1413,63.7656,296.3534,0.00022177,3.244e-05,0.0,0 STARLINK-3285,1 50181U 21125AB  22216.52641032  .00003244  00000-0  22177-3 0  9997,2 50181  53.2182  24.1413 0001933  63.7656 296.3534 15.08847888 38361,6917.856,95.437,541.059,538.384,0.0
50181.0,STARLINK-3285,PAYLOAD,2022-08-04 20:34:57,15.08844713,0.0001939,53.2183,22.6546,63.4027,296.7164,0.00021991,3.214e-05,0.0,0 STARLINK-3285,1 50181U 21125AB  22216.85761191  .00003214  00000-0  21991-3 0  9992,2 50181  53.2183  22.6546 0001939  63.4027 296.7164 15.08844713 37925,6917.866,95.437,541.072,538.39,0.0
50181.0,STARLINK-3285,PAYLOAD,2022-08-05 12:28:49,15.08840287,0.0001838,53.2188,19.681,64.5043,295.6139,9.3367e-05,1.198e-05,0.0,0 STARLINK-3285,1 50181U 21125AB  22217.52001433  .00001198  00000-0  93367-4 0  9999,2 50181  53.2188  19.6810 0001838  64.5043 295.6139 15.08840287 38516,6917.88,95.438,541.016,538.4730000000002,0.0
